0 COSMOS 2268
1 22999U 94011A   13281.43762634  .00000026  00000-0  88659-4 0  4236
2 22999 082.5780 052.2230 0009185 239.6090 181.7476 12.61117095904740
0 COSMOS 2268
1 22999U 94011A   13283.49841705  .00000007  00000-0 -21153-4 0  4248
2 22999 082.5784 050.9106 0009246 234.6086 178.1224 12.61117480905008
0 COSMOS 2268
1 22999U 94011A   13285.82450272 -.00000002  00000-0 -71103-4 0  4259
2 22999 082.5791 049.4294 0009324 228.9418 299.0117 12.61117526905295
0 COSMOS 2268
1 22999U 94011A   13288.10741351  .00000002  00000-0 -49679-4 0  4267
2 22999 082.5796 047.9759 0009423 223.6847 223.5749 12.61117173905580
0 COSMOS 2268
1 22999U 94011A   13290.47852164  .00000033  00000-0  12808-3 0  4272
2 22999 082.5797 046.4664 0009520 218.2367 188.5466 12.61117059905887
0 COSMOS 2268
1 22999U 94011A   13292.80603039  .00000054  00000-0  24614-3 0  4288
2 22999 082.5797 044.9847 0009602 212.6627 315.7995 12.61117192906173
0 COSMOS 2268
1 22999U 94011A   13294.93138853  .00000034  00000-0  13577-3 0  4296
2 22999 082.5797 043.6315 0009677 207.7996 245.0300 12.61117454906441
